{"type": "FeatureCollection", "features": [ {"type": "Feature", "properties": {"norad_id": 66820, "name": "KOMPSAT-7", "group": "last-30-days", "lat": -33.7030572108818, "lon": -47.77161617813711, "alt_km": 573.7428434375825, "timestamp": "2025-12-27T11:23:18.579453+00:00", "meta": {"OBJECT_NAME": "KOMPSAT-7", "OBJECT_ID": "2025-279A", "EPOCH": "2025-12-26T19:32:21.123168", "MEAN_MOTION": 15.00852608, "ECCENTRICITY": 0.00099618, "INCLINATION": 97.6456, "RA_OF_ASC_NODE": 306.4383, "ARG_OF_PERICENTER": 210.1649, "MEAN_ANOMALY": 149.9002, "EPHEMERIS_TYPE": 0, "CLASSIFICATION_TYPE": "U", "NORAD_CAT_ID": 66820, "ELEMENT_SET_NO": 999, "REV_AT_EPOCH": 376, "BSTAR": 0.00024332786, "MEAN_MOTION_DOT": 3.037e-05, "MEAN_MOTION_DDOT": 0}, "tle": {"line1": "1 66820U 25279A   25360.81413337  .00003037  00000+0  24333-3 0  9993", "line2": "2 66820  97.6456 306.4383 0009961 210.1649 149.9002 15.00852608  3762"}}, "geometry": {"type": "Point", "coordinates": [-47.77161617813711, -33.7030572108818]}}, {"type": "Feature", "properties": {"norad_id": 66821, "name": "STARLINK-35966", "group": "last-30-days", "lat": -66.22688030553645, "lon": 33.83358392358784, "alt_km": 413.5417209704319, "timestamp": "2025-12-27T11:23:18.579465+00:00", "meta": {"OBJECT_NAME": "STARLINK-35966", "OBJECT_ID": "2025-280A", "EPOCH": "2025-12-27T04:06:01.930752", "MEAN_MOTION": 15.52566864, "ECCENTRICITY": 0.000318, "INCLINATION": 70.0006, "RA_OF_ASC_NODE": 158.8889, "ARG_OF_PERICENTER": 275.3001, "MEAN_ANOMALY": 84.7823, "EPHEMERIS_TYPE": 0, "CLASSIFICATION_TYPE": "U", "NORAD_CAT_ID": 66821, "ELEMENT_SET_NO": 999, "REV_AT_EPOCH": 517, "BSTAR": 0.0022206, "MEAN_MOTION_DOT": 0.00139102, "MEAN_MOTION_DDOT": 0}, "tle": {"line1": "1 66821U 25280A   25361.17085568  .00139102  00000+0  22206-2 0  9996", "line2": "2 66821  70.0006 158.8889 0003180 275.3001  84.7823 15.52566864  5178"}}, "geometry": {"type": "Point", "coordinates": [33.83358392358784, -66.22688030553645]}}, {"type": "Feature", "properties": {"norad_id": 66822, "name": "STARLINK-35958", "group": "last-30-days", "lat": -67.17853113237831, "lon": 38.00180119448605, "alt_km": 413.43294806286667, "timestamp": "2025-12-27T11:23:18.579476+00:00", "meta": {"OBJECT_NAME": "STARLINK-35958", "OBJECT_ID": "2025-280B", "EPOCH": "2025-12-27T04:05:32.260128", "MEAN_MOTION": 15.52559312, "ECCENTRICITY": 0.0003353, "INCLINATION": 70.0002, "RA_OF_ASC_NODE": 158.8881, "ARG_OF_PERICENTER": 272.9886, "MEAN_ANOMALY": 87.0917, "EPHEMERIS_TYPE": 0, "CLASSIFICATION_TYPE": "U", "NORAD_CAT_ID": 66822, "ELEMENT_SET_NO": 999, "REV_AT_EPOCH": 517, "BSTAR": 0.0020775, "MEAN_MOTION_DOT": 0.00129941, "MEAN_MOTION_DDOT": 0}, "tle": {"line1": "1 66822U 25280B   25361.17051227  .00129941  00000+0  20775-2 0  9991", "line2": "2 66822  70.0002 158.8881 0003353 272.9886  87.0917 15.52559312  5173"}}, "geometry": {"type": "Point", "coordinates": [38.00180119448605, -67.17853113237831]}}, {"type": "Feature", "properties": {"norad_id": 66823, "name": "STARLINK-35957", "group": "last-30-days", "lat": -68.02276088472424, "lon": 42.54447692447175, "alt_km": 413.4359491787354, "timestamp": "2025-12-27T11:23:18.579485+00:00", "meta": {"OBJECT_NAME": "STARLINK-35957", "OBJECT_ID": "2025-280C", "EPOCH": "2025-12-27T04:05:02.658624", "MEAN_MOTION": 15.52567218, "ECCENTRICITY": 0.0003262, "INCLINATION": 70.0003, "RA_OF_ASC_NODE": 158.8863, "ARG_OF_PERICENTER": 273.4789, "MEAN_ANOMALY": 86.6025, "EPHEMERIS_TYPE": 0, "CLASSIFICATION_TYPE": "U", "NORAD_CAT_ID": 66823, "ELEMENT_SET_NO": 999, "REV_AT_EPOCH": 517, "BSTAR": 0.0023303, "MEAN_MOTION_DOT": 0.00146113, "MEAN_MOTION_DDOT": 0}, "tle": {"line1": "1 66823U 25280C   25361.17016966  .00146113  00000+0  23303-2 0  9993", "line2": "2 66823  70.0003 158.8863 0003262 273.4789  86.6025 15.52567218  5171"}}, "geometry": {"type": "Point", "coordinates": [42.54447692447175, -68.02276088472424]}}, {"type": "Feature", "properties": {"norad_id": 66824, "name": "STARLINK-35896", "group": "last-30-days", "lat": -68.7244374466485, "lon": 47.33858844666639, "alt_km": 413.6017957099939, "timestamp": "2025-12-27T11:23:18.579495+00:00", "meta": {"OBJECT_NAME": "STARLINK-35896", "OBJECT_ID": "2025-280D", "EPOCH": "2025-12-27T04:04:32.966400", "MEAN_MOTION": 15.52550684, "ECCENTRICITY": 0.0003085, "INCLINATION": 70.0003, "RA_OF_ASC_NODE": 158.8851, "ARG_OF_PERICENTER": 275.0326, "MEAN_ANOMALY": 85.0509, "EPHEMERIS_TYPE": 0, "CLASSIFICATION_TYPE": "U", "NORAD_CAT_ID": 66824, "ELEMENT_SET_NO": 999, "REV_AT_EPOCH": 517, "BSTAR": 0.002358, "MEAN_MOTION_DOT": 0.00147794, "MEAN_MOTION_DDOT": 0}, "tle": {"line1": "1 66824U 25280D   25361.16982600  .00147794  00000+0  23580-2 0  9993", "line2": "2 66824  70.0003 158.8851 0003085 275.0326  85.0509 15.52550684  5176"}}, "geometry": {"type": "Point", "coordinates": [47.33858844666639, -68.7244374466485]}}, {"type": "Feature", "properties": {"norad_id": 66825, "name": "STARLINK-35476", "group": "last-30-days", "lat": -69.28734072726999, "lon": 52.46672122448459, "alt_km": 413.4480578143912, "timestamp": "2025-12-27T11:23:18.579505+00:00", "meta": {"OBJECT_NAME": "STARLINK-35476", "OBJECT_ID": "2025-280E", "EPOCH": "2025-12-27T04:04:03.266400", "MEAN_MOTION": 15.5255596, "ECCENTRICITY": 0.0003267, "INCLINATION": 70.0003, "RA_OF_ASC_NODE": 158.8831, "ARG_OF_PERICENTER": 273.9441, "MEAN_ANOMALY": 86.1373, "EPHEMERIS_TYPE": 0, "CLASSIFICATION_TYPE": "U", "NORAD_CAT_ID": 66825, "ELEMENT_SET_NO": 999, "REV_AT_EPOCH": 517, "BSTAR": 0.0023693, "MEAN_MOTION_DOT": 0.00148546, "MEAN_MOTION_DDOT": 0}, "tle": {"line1": "1 66825U 25280E   25361.16948225  .00148546  00000+0  23693-2 0  9990", "line2": "2 66825  70.0003 158.8831 0003267 273.9441  86.1373 15.52555960  5175"}}, "geometry": {"type": "Point", "coordinates": [52.46672122448459, -69.28734072726999]}}, {"type": "Feature", "properties": {"norad_id": 66826, "name": "STARLINK-35898", "group": "last-30-days", "lat": -69.68954047232057, "lon": 57.80746940269632, "alt_km": 413.56123055641, "timestamp": "2025-12-27T11:23:18.579515+00:00", "meta": {"OBJECT_NAME": "STARLINK-35898", "OBJECT_ID": "2025-280F", "EPOCH": "2025-12-27T04:03:34.756128", "MEAN_MOTION": 15.52614823, "ECCENTRICITY": 0.0002807, "INCLINATION": 70.0003, "RA_OF_ASC_NODE": 158.8819, "ARG_OF_PERICENTER": 272.483, "MEAN_ANOMALY": 87.6035, "EPHEMERIS_TYPE": 0, "CLASSIFICATION_TYPE": "U", "NORAD_CAT_ID": 66826, "ELEMENT_SET_NO": 999, "REV_AT_EPOCH": 517, "BSTAR": 0.0024706, "MEAN_MOTION_DOT": 0.00155357, "MEAN_MOTION_DDOT": 0}, "tle": {"line1": "1 66826U 25280F   25361.16915227  .00155357  00000+0  24706-2 0  9991", "line2": "2 66826  70.0003 158.8819 0002807 272.4830  87.6035 15.52614823  5172"}}, "geometry": {"type": "Point", "coordinates": [57.80746940269632, -69.68954047232057]}}, {"type": "Feature", "properties": {"norad_id": 66827, "name": "STARLINK-35959", "group": "last-30-days", "lat": -69.92511991643447, "lon": 63.34612386005183, "alt_km": 413.3896521718898, "timestamp": "2025-12-27T11:23:18.579524+00:00", "meta": {"OBJECT_NAME": "STARLINK-35959", "OBJECT_ID": "2025-280G", "EPOCH": "2025-12-27T04:03:04.396032", "MEAN_MOTION": 15.52592671, "ECCENTRICITY": 0.00032, "INCLINATION": 70.0004, "RA_OF_ASC_NODE": 158.8806, "ARG_OF_PERICENTER": 278.2881, "MEAN_ANOMALY": 81.7943, "EPHEMERIS_TYPE": 0, "CLASSIFICATION_TYPE": "U", "NORAD_CAT_ID": 66827, "ELEMENT_SET_NO": 999, "REV_AT_EPOCH": 517, "BSTAR": 0.0024005, "MEAN_MOTION_DOT": 0.00150745, "MEAN_MOTION_DDOT": 0}, "tle": {"line1": "1 66827U 25280G   25361.16880088  .00150745  00000+0  24005-2 0  9996", "line2": "2 66827  70.0004 158.8806 0003200 278.2881  81.7943 15.52592671  5177"}}, "geometry": {"type": "Point", "coordinates": [63.34612386005183, -69.92511991643447]}}, {"type": "Feature", "properties": {"norad_id": 66828, "name": "STARLINK-35982", "group": "last-30-days", "lat": -69.87816743384556, "lon": 74.25612618286867, "alt_km": 413.53816143252334, "timestamp": "2025-12-27T11:23:18.579534+00:00", "meta": {"OBJECT_NAME": "STARLINK-35982", "OBJECT_ID": "2025-280H", "EPOCH": "2025-12-27T04:02:05.439264", "MEAN_MOTION": 15.52538527, "ECCENTRICITY": 0.0003198, "INCLINATION": 70.0003, "RA_OF_ASC_NODE": 158.8781, "ARG_OF_PERICENTER": 275.6823, "MEAN_ANOMALY": 84.3999, "EPHEMERIS_TYPE": 0, "CLASSIFICATION_TYPE": "U", "NORAD_CAT_ID": 66828, "ELEMENT_SET_NO": 999, "REV_AT_EPOCH": 517, "BSTAR": 0.0022657, "MEAN_MOTION_DOT": 0.00141831, "MEAN_MOTION_DDOT": 0}, "tle": {"line1": "1 66828U 25280H   25361.16811851  .00141831  00000+0  22657-2 0  9996", "line2": "2 66828  70.0003 158.8781 0003198 275.6823  84.3999 15.52538527  5172"}}, "geometry": {"type": "Point", "coordinates": [74.25612618286867, -69.87816743384556]}}, {"type": "Feature", "properties": {"norad_id": 66829, "name": "STARLINK-36084", "group": "last-30-days", "lat": -69.98691841055926, "lon": 68.35134658404891, "alt_km": 413.7435026315334, "timestamp": "2025-12-27T11:23:18.579546+00:00", "meta": {"OBJECT_NAME": "STARLINK-36084", "OBJECT_ID": "2025-280J", "EPOCH": "2025-12-26T21:51:29.345184", "MEAN_MOTION": 15.52482745, "ECCENTRICITY": 0.0002994, "INCLINATION": 70.0004, "RA_OF_ASC_NODE": 159.5847, "ARG_OF_PERICENTER": 276.2035, "MEAN_ANOMALY": 83.881, "EPHEMERIS_TYPE": 0, "CLASSIFICATION_TYPE": "U", "NORAD_CAT_ID": 66829, "ELEMENT_SET_NO": 999, "REV_AT_EPOCH": 513, "BSTAR": 0.0017316, "MEAN_MOTION_DOT": 0.00107671, "MEAN_MOTION_DDOT": 0}, "tle": {"line1": "1 66829U 25280J   25360.91075631  .00107671  00000+0  17316-2 0  9997", "line2": "2 66829  70.0004 159.5847 0002994 276.2035  83.8810 15.52482745  5132"}}, "geometry": {"type": "Point", "coordinates": [68.35134658404891, -69.98691841055926]}}]}